OBJECT_NAME,OBJECT_ID,EPOCH,MEAN_MOTION,ECCENTRICITY,INCLINATION,RA_OF_ASC_NODE,ARG_OF_PERICENTER,MEAN_ANOMALY,EPHEMERIS_TYPE,CLASSIFICATION_TYPE,NORAD_CAT_ID,ELEMENT_SET_NO,REV_AT_EPOCH,BSTAR,MEAN_MOTION_DOT,MEAN_MOTION_DDOT
MANDRAKE 2 ABLE,2021-059AE,2026-05-13T03:35:54.834144,15.53556743,.0006278,97.7048,320.3030,116.8207,243.3688,0,U,48907,999,27168,.20441E-3,.1291E-3,0
MANDRAKE 2 BAKER,2021-059AF,2026-05-12T23:41:41.124192,15.57763178,.0004865,97.7023,322.7649,114.9694,245.2067,0,U,48908,999,27181,.24186E-3,.17866E-3,0
PACE-1,2021-059AG,2026-05-12T19:23:52.402560,15.74432113,.00028857,97.6805,327.1196,100.4679,259.6910,0,U,48909,999,27222,.33486943E-3,.48494E-3,0
YAM-3,2021-059AN,2026-05-12T23:16:43.267872,15.47759355,.0006577,97.6995,317.6484,118.0367,242.1548,0,U,48915,999,27154,.15366E-3,.7868E-4,0
FARADAY_PHOENIX,2021-059AX,2026-05-12T23:58:48.135072,15.70624447,.0005154,97.6856,327.3498,109.6920,250.4898,0,U,48924,999,27212,.57331E-3,.70988E-3,0
DEMO8 (TENZING),2021-059CA,2026-05-12T23:03:30.265344,15.53633754,.0008268,97.7044,323.7359,112.5669,247.6459,0,U,48951,999,27183,.21619E-3,.13708E-3,0
NAPA-2,2021-059CN,2026-05-13T04:07:56.085888,15.85017276,.0002122,97.6777,327.7545,124.9266,235.2203,0,U,48963,999,27224,.54503E-3,.12874E-2,0
FENGYUN 3E,2021-062A,2026-05-13T06:00:04.523904,14.19901675,.0001762,98.7505,137.0476,146.9040,213.2247,0,U,49008,999,25162,.66951E-4,.98E-6,0
ISS (NAUKA),2021-066A,2026-05-13T03:59:43.960128,15.49201863,.0007515,51.6312,113.4597,53.2822,306.8856,0,U,49044,999,56647,.97915E-4,.4986E-4,0
STARLINK-3100,2021-082Q,2026-05-13T01:23:33.602784,14.98351479,.000382,69.9986,132.1506,263.8768,96.1956,0,U,49144,999,25562,.20013E-3,.2297E-4,0
CUTE,2021-088D,2026-05-12T18:43:00.759360,15.78491621,.00015958,97.4190,229.0724,275.6751,84.4333,0,U,49263,999,25694,.76236117E-3,.13339E-2,0
2021-091B,2021-091B,2026-05-13T04:47:40.402752,15.18366902,.0013801,97.4484,321.3120,156.2176,203.9699,0,U,49316,999,25367,.717E-4,.1408E-4,0
SDGSAT 1,2021-100A,2026-05-13T04:54:32.281920,15.19741175,.0009599,97.2667,181.4497,61.7935,298.4268,0,U,49387,999,25060,.73684E-4,.1511E-4,0
TEIKYOSAT-4 (OORURI),2021-102B,2026-05-13T01:15:25.161120,15.09378186,.0013509,97.3698,163.9005,58.7668,301.4883,0,U,49396,999,24742,.69715E-4,.1055E-4,0
Z-SAT,2021-102E,2026-05-13T04:45:25.403616,15.17990182,.0017066,97.3360,169.5858,15.9432,344.2336,0,U,49399,999,24813,.11864E-3,.2353E-4,0
HIBARI,2021-102F,2026-05-12T20:24:58.722624,15.31002023,.00103972,97.3271,179.1715,333.7654,26.3060,0,U,49400,999,24878,.22138441E-3,.6564E-4,0
KOSEN-1,2021-102H,2026-05-12T08:26:57.818112,15.26331816,.0012843,97.3221,175.2138,341.4949,18.5820,0,U,49402,999,24855,.17377E-3,.445E-4,0
GLOBAL-14,2021-106A,2026-05-13T00:37:50.812320,15.48902703,.0014291,42.0031,139.7545,143.9940,216.1869,0,U,49469,999,25267,.27527E-3,.15005E-3,0
GAOFEN-3 02,2021-109A,2026-05-13T03:38:31.454016,14.42212324,.0004015,98.4104,141.7456,92.2039,267.9610,0,U,49495,999,23526,.12899E-4,-.1E-7,0
GLOBAL-12,2021-115BA,2026-05-13T02:50:01.042368,15.51683479,.0002212,53.1951,212.8919,328.5150,31.5728,0,U,49772,999,25045,.33783E-3,.20032E-3,0
GLOBAL-13,2021-115BB,2026-05-12T08:31:13.270080,15.44769452,.0003178,53.1970,224.7426,25.5296,334.5868,0,U,49773,999,25022,.23386E-3,.10705E-3,0
GLOBAL-17,2021-120A,2026-05-13T01:34:48.035136,15.50495721,.0013039,41.9953,258.2773,1.1815,358.9057,0,U,49949,999,24944,.32348E-3,.18725E-3,0
GLOBAL-16,2021-120B,2026-05-12T18:37:40.504800,15.48579377,.00113364,41.9958,263.0995,348.8418,11.2172,0,U,49950,999,24935,.31060725E-3,.16758E-3,0
XW-3 (CAS-9),2021-131B,2026-05-13T04:56:15.163584,14.41322174,.000388,98.4955,225.7882,185.8314,174.2830,0,U,50466,999,23007,.4564E-4,.103E-5,0
ION SCV-004,2022-002K,2026-05-12T23:44:24.169632,15.30087764,.0009054,97.2861,191.3141,115.2116,245.0064,0,U,50993,999,23991,.12523E-3,.3575E-4,0
ETV-A1,2022-002CE,2026-05-13T04:36:54.280224,15.39930355,.0006871,97.2900,199.6152,109.5498,250.6490,0,U,51060,999,24045,.19348E-3,.7624E-4,0
BRO-5,2022-002CF,2026-05-13T04:15:37.687392,15.45480749,.0006583,97.3016,206.5881,99.3893,260.8101,0,U,51061,999,24084,.24989E-3,.11899E-3,0
LUDI TANCE 1-01A (L-SAR 01A),2022-007A,2026-05-13T03:44:31.312608,14.88413724,.0001606,97.8091,141.0748,90.3807,269.7594,0,U,51284,999,23326,.46564E-4,.377E-5,0
LUDI TANCE 1-01B (L-SAR 01B),2022-018A,2026-05-13T04:32:54.273984,14.88414518,.0001597,97.8098,141.1036,92.8458,267.2942,0,U,51822,999,22850,.44362E-4,.357E-5,0
