MANDRAKE 2 ABLE         
1 48907U 21059AE  26133.14994021  .00012910  00000+0  20441-3 0  9996
2 48907  97.7048 320.3030 0006278 116.8207 243.3688 15.53556743271686
MANDRAKE 2 BAKER        
1 48908U 21059AF  26132.98728153  .00017866  00000+0  24186-3 0  9994
2 48908  97.7023 322.7649 0004865 114.9694 245.2067 15.57763178271814
PACE-1                  
1 48909U 21059AG  26132.80824540  .00048494  00000+0  33487-3 0  9998
2 48909  97.6805 327.1196 0002885 100.4679 259.6910 15.74432113272224
YAM-3                   
1 48915U 21059AN  26132.96994523  .00007868  00000+0  15366-3 0  9997
2 48915  97.6995 317.6484 0006577 118.0367 242.1548 15.47759355271544
FARADAY_PHOENIX         
1 48924U 21059AX  26132.99916823  .00070988  00000+0  57331-3 0  9998
2 48924  97.6856 327.3498 0005154 109.6920 250.4898 15.70624447272128
DEMO8 (TENZING)         
1 48951U 21059CA  26132.96076696  .00013708  00000+0  21619-3 0  9997
2 48951  97.7044 323.7359 0008268 112.5669 247.6459 15.53633754271836
NAPA-2                  
1 48963U 21059CN  26133.17217692  .00128740  00000+0  54503-3 0  9998
2 48963  97.6777 327.7545 0002122 124.9266 235.2203 15.85017276272241
FENGYUN 3E              
1 49008U 21062A   26133.25005236  .00000098  00000+0  66951-4 0  9997
2 49008  98.7505 137.0476 0001762 146.9040 213.2247 14.19901675251625
ISS (NAUKA)             
1 49044U 21066A   26133.16648102  .00004986  00000+0  97915-4 0  9990
2 49044  51.6312 113.4597 0007515  53.2822 306.8856 15.49201863566474
STARLINK-3100           
1 49144U 21082Q   26133.05802781  .00002297  00000+0  20013-3 0  9999
2 49144  69.9986 132.1506 0003820 263.8768  96.1956 14.98351479255629
CUTE                    
1 49263U 21088D   26132.77986990  .00133390  00000+0  76236-3 0  9997
2 49263  97.4190 229.0724 0001595 275.6751  84.4333 15.78491621256940
2021-091B               
1 49316U 21091B   26133.19977318  .00001408  00000+0  71700-4 0  9997
2 49316  97.4484 321.3120 0013801 156.2176 203.9699 15.18366902253676
SDGSAT 1                
1 49387U 21100A   26133.20454030  .00001511  00000+0  73684-4 0  9997
2 49387  97.2667 181.4497 0009599  61.7935 298.4268 15.19741175250600
TEIKYOSAT-4 (OORURI)    
1 49396U 21102B   26133.05237455  .00001055  00000+0  69715-4 0  9995
2 49396  97.3698 163.9005 0013509  58.7668 301.4883 15.09378186247421
Z-SAT                   
1 49399U 21102E   26133.19821069  .00002353  00000+0  11864-3 0  9996
2 49399  97.3360 169.5858 0017066  15.9432 344.2336 15.17990182248136
HIBARI                  
1 49400U 21102F   26132.85067966  .00006564  00000+0  22138-3 0  9993
2 49400  97.3271 179.1715 0010397 333.7654  26.3060 15.31002023248783
KOSEN-1                 
1 49402U 21102H   26132.35205808  .00004450  00000+0  17377-3 0  9990
2 49402  97.3221 175.2138 0012843 341.4949  18.5820 15.26331816248558
GLOBAL-14               
1 49469U 21106A   26133.02628255  .00015005  00000+0  27527-3 0  9993
2 49469  42.0031 139.7545 0014291 143.9940 216.1869 15.48902703252679
GAOFEN-3 02             
1 49495U 21109A   26133.15175294 -.00000001  00000+0  12899-4 0  9997
2 49495  98.4104 141.7456 0004015  92.2039 267.9610 14.42212324235266
GLOBAL-12               
1 49772U 21115BA  26133.11806762  .00020032  00000+0  33783-3 0  9998
2 49772  53.1951 212.8919 0002212 328.5150  31.5728 15.51683479250459
GLOBAL-13               
1 49773U 21115BB  26132.35501470  .00010705  00000+0  23386-3 0  9996
2 49773  53.1970 224.7426 0003178  25.5296 334.5868 15.44769452250227
GLOBAL-17               
1 49949U 21120A   26133.06583374  .00018725  00000+0  32348-3 0  9997
2 49949  41.9953 258.2773 0013039   1.1815 358.9057 15.50495721249443
GLOBAL-16               
1 49950U 21120B   26132.77616325  .00016758  00000+0  31061-3 0  9994
2 49950  41.9958 263.0995 0011336 348.8418  11.2172 15.48579377249352
XW-3 (CAS-9)            
1 50466U 21131B   26133.20573106  .00000103  00000+0  45640-4 0  9994
2 50466  98.4955 225.7882 0003880 185.8314 174.2830 14.41322174230072
ION SCV-004             
1 50993U 22002K   26132.98916863  .00003575  00000+0  12523-3 0  9991
2 50993  97.2861 191.3141 0009054 115.2116 245.0064 15.30087764239912
ETV-A1                  
1 51060U 22002CE  26133.19229491  .00007624  00000+0  19348-3 0  9996
2 51060  97.2900 199.6152 0006871 109.5498 250.6490 15.39930355240456
BRO-5                   
1 51061U 22002CF  26133.17751953  .00011899  00000+0  24989-3 0  9994
2 51061  97.3016 206.5881 0006583  99.3893 260.8101 15.45480749240847
LUDI TANCE 1-01A (L-SA*)
1 51284U 22007A   26133.15591797  .00000377  00000+0  46564-4 0  9995
2 51284  97.8091 141.0748 0001606  90.3807 269.7594 14.88413724233261
LUDI TANCE 1-01B (L-SA*)
1 51822U 22018A   26133.18951706  .00000357  00000+0  44362-4 0  9990
2 51822  97.8098 141.1036 0001597  92.8458 267.2942 14.88414518228508
